{
  "norad_id": 64916,
  "name": "STARLINK-34695",
  "history": [
    {
      "epoch": "2026-03-28T18:00:38.500704",
      "apogee_km": 447.43547127529837,
      "perigee_km": 446.0184930153255,
      "latitude_deg": -52.81366235023824,
      "longitude_deg": 23.642778560053557,
      "semi_major_axis_km": 6824.863982145312,
      "eccentricity": 0.00010381,
      "inclination_deg": 53.1591,
      "raan_deg": 253.4706,
      "arg_perigee_deg": 70.3955,
      "mean_anomaly_deg": 289.7162,
      "mean_motion_rev_day": 15.39790945
    }
  ]
}