{"fetched_at":"2026-03-30T09:12:31Z","count":15922,"tles":[{"name":"STARLINK-34695","line1":"1 64916U 25157N   26087.75044561  .00072050  00000+0  17842-2 0  9998","line2":"2 64916  53.1591 253.4706 0001038  70.3955 289.7162 15.39790945 39098","category":"Starlink"}]}